{
    "id": "dhp1–20",
    "parentId": "dhp",
    "name": "Yamakavagga",
    "nameEn": "Pairs ",
    "acro": "Dhp 1–20",
    "facro": "dhp1–20",
    "parallels": []
},
{
    "id": "dhp21–32",
    "parentId": "dhp",
    "name": "Appamādavagga",
    "nameEn": "Diligence ",
    "acro": "Dhp 21–32",
    "facro": "dhp21–32",
    "parallels": []
},
{
    "id": "dhp33–43",
    "parentId": "dhp",
    "name": "Cittavagga",
    "nameEn": "The Mind ",
    "acro": "Dhp 33–43",
    "facro": "dhp33–43",
    "parallels": []
},
{
    "id": "dhp44–59",
    "parentId": "dhp",
    "name": "Pupphavagga",
    "nameEn": "Flowers ",
    "acro": "Dhp 44–59",
    "facro": "dhp44–59",
    "parallels": []
},
{
    "id": "dhp60–75",
    "parentId": "dhp",
    "name": "Bālavagga",
    "nameEn": "Fools ",
    "acro": "Dhp 60–75",
    "facro": "dhp60–75",
    "parallels": []
},
{
    "id": "dhp76–89",
    "parentId": "dhp",
    "name": "Paṇḍitavagga",
    "nameEn": "The Astute ",
    "acro": "Dhp 76–89",
    "facro": "dhp76–89",
    "parallels": []
},
{
    "id": "dhp90–99",
    "parentId": "dhp",
    "name": "Arahantavagga",
    "nameEn": "The Perfected Ones ",
    "acro": "Dhp 90–99",
    "facro": "dhp90–99",
    "parallels": []
},
{
    "id": "dhp100–115",
    "parentId": "dhp",
    "name": "Sahassavagga",
    "nameEn": "The Thousands ",
    "acro": "Dhp 100–115",
    "facro": "dhp100–115",
    "parallels": []
},
{
    "id": "dhp116–128",
    "parentId": "dhp",
    "name": "Pāpavagga",
    "nameEn": "Wickedness ",
    "acro": "Dhp 116–128",
    "facro": "dhp116–128",
    "parallels": []
},
{
    "id": "dhp129–145",
    "parentId": "dhp",
    "name": "Daṇḍavagga",
    "nameEn": "The Rod ",
    "acro": "Dhp 129–145",
    "facro": "dhp129–145",
    "parallels": []
},
{
    "id": "dhp146–156",
    "parentId": "dhp",
    "name": "Jarāvagga",
    "nameEn": "Old Age ",
    "acro": "Dhp 146–156",
    "facro": "dhp146–156",
    "parallels": []
},
{
    "id": "dhp157–166",
    "parentId": "dhp",
    "name": "Attavagga",
    "nameEn": "The Self ",
    "acro": "Dhp 157–166",
    "facro": "dhp157–166",
    "parallels": []
},
{
    "id": "dhp167–178",
    "parentId": "dhp",
    "name": "Lokavagga",
    "nameEn": "The World ",
    "acro": "Dhp 167–178",
    "facro": "dhp167–178",
    "parallels": []
},
{
    "id": "dhp179–196",
    "parentId": "dhp",
    "name": "Buddhavagga",
    "nameEn": "The Buddhas ",
    "acro": "Dhp 179–196",
    "facro": "dhp179–196",
    "parallels": []
},
{
    "id": "dhp197–208",
    "parentId": "dhp",
    "name": "Sukhavagga",
    "nameEn": "Happiness ",
    "acro": "Dhp 197–208",
    "facro": "dhp197–208",
    "parallels": []
},
{
    "id": "dhp209–220",
    "parentId": "dhp",
    "name": "Piyavagga",
    "nameEn": "The Beloved ",
    "acro": "Dhp 209–220",
    "facro": "dhp209–220",
    "parallels": []
},
{
    "id": "dhp221–234",
    "parentId": "dhp",
    "name": "Kodhavagga",
    "nameEn": "Anger ",
    "acro": "Dhp 221–234",
    "facro": "dhp221–234",
    "parallels": []
},
{
    "id": "dhp235–255",
    "parentId": "dhp",
    "name": "Malavagga",
    "nameEn": "Stains ",
    "acro": "Dhp 235–255",
    "facro": "dhp235–255",
    "parallels": []
},
{
    "id": "dhp256–272",
    "parentId": "dhp",
    "name": "Dhammaṭṭhavagga",
    "nameEn": "The Just ",
    "acro": "Dhp 256–272",
    "facro": "dhp256–272",
    "parallels": []
},
{
    "id": "dhp273–289",
    "parentId": "dhp",
    "name": "Maggavagga",
    "nameEn": "The Path ",
    "acro": "Dhp 273–289",
    "facro": "dhp273–289",
    "parallels": []
},
{
    "id": "dhp290–305",
    "parentId": "dhp",
    "name": "Pakiṇṇakavagga",
    "nameEn": "Miscellaneous ",
    "acro": "Dhp 290–305",
    "facro": "dhp290–305",
    "parallels": []
},
{
    "id": "dhp306–319",
    "parentId": "dhp",
    "name": "Nirayavagga",
    "nameEn": "Hell ",
    "acro": "Dhp 306–319",
    "facro": "dhp306–319",
    "parallels": []
},
{
    "id": "dhp320–333",
    "parentId": "dhp",
    "name": "Nāgavagga",
    "nameEn": "Dragons ",
    "acro": "Dhp 320–333",
    "facro": "dhp320–333",
    "parallels": []
},
{
    "id": "dhp334–359",
    "parentId": "dhp",
    "name": "Taṇhāvagga",
    "nameEn": "Craving ",
    "acro": "Dhp 334–359",
    "facro": "dhp334–359",
    "parallels": []
},
{
    "id": "dhp360–382",
    "parentId": "dhp",
    "name": "Bhikkhuvagga",
    "nameEn": "Mendicants ",
    "acro": "Dhp 360–382",
    "facro": "dhp360–382",
    "parallels": []
},
{
    "id": "dhp383–423",
    "parentId": "dhp",
    "name": "Brāhmaṇavagga",
    "nameEn": "Brahmins ",
    "acro": "Dhp 383–423",
    "facro": "dhp383–423",
    "parallels": []
},